NORAD_CAT_ID,OBJECT_NAME,OBJECT_TYPE,EPOCH,MEAN_MOTION,ECCENTRICITY,INCLINATION,RA_OF_ASC_NODE,ARG_OF_PERICENTER,MEAN_ANOMALY,BSTAR,MEAN_MOTION_DOT,MEAN_MOTION_DDOT,TLE_LINE0,TLE_LINE1,TLE_LINE2,SEMIMAJOR_AXIS,PERIOD,APOGEE,PERIGEE,DECAYED
55780.0,STARLINK-5819,PAYLOAD,2023-06-09 12:18:25,15.60587274,0.0004194,69.996,240.4819,264.5079,95.5634,-0.0034268,-0.00275135,0.0,0 STARLINK-5819,1 55780U 23028AR  23160.51279973 -.00275135  00000-0 -34268-2 0  9995,2 55780  69.9960 240.4819 0004194 264.5079  95.5634 15.60587274 16010,6764.097,92.273,388.798,383.125,0.0
55780.0,STARLINK-5819,PAYLOAD,2023-06-09 22:00:00,15.58144162,0.0003471,69.9989,239.3635,273.3631,195.074,-0.013092,-0.00901458,0.0,0 STARLINK-5819,1 55780U 23028AR  23160.91667824 -.00901458  00000-0 -13092-1 0  9990,2 55780  69.9989 239.3635 0003471 273.3631 195.0740 15.58144162  1305,6771.165,92.418,395.381,390.68,0.0
55780.0,STARLINK-5819,PAYLOAD,2023-06-10 06:00:02,15.57527869,0.0003439,69.9995,238.4431,268.4174,268.894,-0.014033,-0.0094015,0.0,0 STARLINK-5819,1 55780U 23028AR  23161.25002315 -.00940150  00000-0 -14033-1 0  9994,2 55780  69.9995 238.4431 0003439 268.4174 268.8940 15.57527869 16122,6772.951,92.454,397.146,392.487,0.0
55780.0,STARLINK-5819,PAYLOAD,2023-06-10 14:00:01,15.56821562,0.0003567,69.9995,237.5234,273.8923,331.419,-0.013113,-0.008627,0.0,0 STARLINK-5819,1 55780U 23028AR  23161.58334491 -.00862700  00000-0 -13113-1 0  9995,2 55780  69.9995 237.5234 0003567 273.8923 331.4190 15.56821562  1301,6775.0,92.496,399.281,394.448,0.0
55780.0,STARLINK-5819,PAYLOAD,2023-06-10 22:00:00,15.56189602,0.000359,69.9992,236.6048,271.0421,41.5258,-0.01415,-0.00905134,0.0,0 STARLINK-5819,1 55780U 23028AR  23161.91667824 -.00905134  00000-0 -14150-1 0  9992,2 55780  69.9992 236.6048 0003590 271.0421  41.5258 15.56189602  1306,6776.834,92.534,401.132,396.266,0.0
55780.0,STARLINK-5819,PAYLOAD,2023-06-11 14:00:01,15.548684,0.0003498,69.9995,234.7702,276.0752,168.6702,-0.014115,-0.00863599,0.0,0 STARLINK-5819,1 55780U 23028AR  23162.58334491 -.00863599  00000-0 -14115-1 0  9996,2 55780  69.9995 234.7702 0003498 276.0752 168.6702 15.54868400 16336,6780.672,92.612,404.909,400.165,0.0
55780.0,STARLINK-5819,PAYLOAD,2023-06-11 22:00:00,15.542254,0.0003324,69.9994,233.8542,271.0498,238.612,-0.014991,-0.00892907,0.0,0 STARLINK-5819,1 55780U 23028AR  23162.91667824 -.00892907  00000-0 -14991-1 0  9999,2 55780  69.9994 233.8542 0003324 271.0498 238.6120 15.54225400  1307,6782.542,92.651,406.662,402.153,0.0
55780.0,STARLINK-5819,PAYLOAD,2023-06-12 06:00:00,15.53621223,0.0003344,70.0,232.9395,267.0868,306.6883,-0.016532,-0.00970268,0.0,0 STARLINK-5819,1 55780U 23028AR  23163.25001157 -.00970268  00000-0 -16532-1 0  9998,2 55780  70.0000 232.9395 0003344 267.0868 306.6883 15.53621223 16436,6784.301,92.687,408.434,403.897,0.0
55780.0,STARLINK-5819,PAYLOAD,2023-06-12 14:00:01,15.52916693,0.0003397,69.9999,232.0252,273.3087,3.8974,-0.015301,-0.00870974,0.0,0 STARLINK-5819,1 55780U 23028AR  23163.58335648 -.00870974  00000-0 -15301-1 0  9995,2 55780  69.9999 232.0252 0003397 273.3087   3.8974 15.52916693  1308,6786.352,92.729,410.523,405.912,0.0
55780.0,STARLINK-5819,PAYLOAD,2023-06-12 22:00:00,15.52261058,0.0003385,69.9997,231.1117,269.1046,70.611,-0.015866,-0.00880994,0.0,0 STARLINK-5819,1 55780U 23028AR  23163.91667824 -.00880994  00000-0 -15866-1 0  9995,2 55780  69.9997 231.1117 0003385 269.1046  70.6110 15.52261058 16545,6788.263,92.768,412.426,407.83,0.0
55780.0,STARLINK-5819,PAYLOAD,2023-06-13 00:00:00,15.52068017,0.0003406,69.9997,230.8837,268.6763,176.5639,-0.014641,-0.00813257,0.0,0 STARLINK-5819,1 55780U 23028AR  23164.00001157 -.00813257  00000-0 -14641-1 0  9995,2 55780  69.9997 230.8837 0003406 268.6763 176.5639 15.52068017  1304,6788.826,92.779,413.003,408.379,0.0
55780.0,STARLINK-5819,PAYLOAD,2023-06-13 06:00:02,15.51494556,0.0003442,70.0,230.1995,266.9378,134.6333,-0.0070528,-0.00398154,0.0,0 STARLINK-5819,1 55780U 23028AR  23164.25002315 -.00398154  00000-0 -70528-2 0  9990,2 55780  70.0000 230.1995 0003442 266.9378 134.6333 15.51494556 16596,6790.499,92.814,414.701,410.026,0.0
55780.0,STARLINK-5819,PAYLOAD,2023-06-13 14:00:01,15.51199098,0.0003476,70.0001,229.2877,275.6445,186.9224,0.00089863,0.00052927,0.0,0 STARLINK-5819,1 55780U 23028AR  23164.58334491  .00052927  00000-0  89863-3 0  9995,2 55780  70.0001 229.2877 0003476 275.6445 186.9224 15.51199098 16642,6791.361,92.831,415.587,410.865,0.0
55780.0,STARLINK-5819,PAYLOAD,2023-06-13 22:00:00,15.51212972,0.0003462,69.9999,228.3764,271.3158,252.1627,5.0916e-05,2.826e-05,0.0,0 STARLINK-5819,1 55780U 23028AR  23164.91667824  .00002826  00000-0  50916-4 0  9992,2 55780  69.9999 228.3764 0003462 271.3158 252.1627 15.51212972  1306,6791.32,92.831,415.537,410.834,0.0
55780.0,STARLINK-5819,PAYLOAD,2023-06-14 06:00:00,15.51252067,0.0003477,70.0,227.4655,268.915,315.4512,-0.00060776,-0.0003574,0.0,0 STARLINK-5819,1 55780U 23028AR  23165.25001157 -.00035740  00000-0 -60776-3 0  9998,2 55780  70.0000 227.4655 0003477 268.9150 315.4512 15.51252067 16740,6791.206,92.828,415.433,410.71,0.0
55780.0,STARLINK-5819,PAYLOAD,2023-06-14 14:00:01,15.51208521,0.0003465,69.9998,226.5541,275.6569,9.6434,0.000753,0.0004429,0.0,0 STARLINK-5819,1 55780U 23028AR  23165.58334491  .00044290  00000-0  75300-3 0  9991,2 55780  69.9998 226.5541 0003465 275.6569   9.6434 15.51208521  1300,6791.333,92.831,415.552,410.845,0.0
55780.0,STARLINK-5819,PAYLOAD,2023-06-14 22:00:00,15.51206398,0.0003412,69.9998,225.6427,270.1996,76.0213,-1.6936e-05,-1.159e-05,0.0,0 STARLINK-5819,1 55780U 23028AR  23165.91667824 -.00001159  00000-0 -16936-4 0  9997,2 55780  69.9998 225.6427 0003412 270.1996  76.0213 15.51206398  1302,6791.34,92.831,415.522,410.887,0.0
55780.0,STARLINK-5819,PAYLOAD,2023-06-15 06:00:00,15.51241962,0.000351,70.0002,224.7316,268.3678,138.7351,-0.00033983,-0.00020089,0.0,0 STARLINK-5819,1 55780U 23028AR  23166.25001157 -.00020089  00000-0 -33983-3 0  9999,2 55780  70.0002 224.7316 0003510 268.3678 138.7351 15.51241962 16900,6791.236,92.829,415.485,410.717,0.0
55780.0,STARLINK-5819,PAYLOAD,2023-06-15 14:00:01,15.51253575,0.0003563,69.9999,223.8202,274.1807,193.8417,-0.0012659,-0.00073914,0.0,0 STARLINK-5819,1 55780U 23028AR  23166.58334491 -.00073914  00000-0 -12659-2 0  9996,2 55780  69.9999 223.8202 0003563 274.1807 193.8417 15.51253575  1309,6791.202,92.828,415.487,410.647,0.0
55780.0,STARLINK-5819,PAYLOAD,2023-06-15 20:00:01,15.51406329,0.0003541,69.9994,223.1365,272.1381,151.5549,-0.01035,-0.00570057,0.0,0 STARLINK-5819,1 55780U 23028AR  23166.83334491 -.00570057  00000-0 -10350-1 0  9999,2 55780  69.9994 223.1365 0003541 272.1381 151.5549 15.51406329 16993,6790.756,92.819,415.026,410.217,0.0
55780.0,STARLINK-5819,PAYLOAD,2023-06-16 03:27:57,15.51172531,0.0003272,69.9969,222.2868,268.7191,91.362,-9.6604e-05,-5.825e-05,0.0,0 STARLINK-5819,1 55780U 23028AR  23167.14441189 -.00005825  00000-0 -96604-4 0  9992,2 55780  69.9969 222.2868 0003272 268.7191  91.3620 15.51172531 17047,6791.438,92.833,415.526,411.081,0.0
55780.0,STARLINK-5819,PAYLOAD,2023-06-16 14:00:01,15.50184568,0.0003359,69.9996,221.0872,271.6412,18.1612,-0.017145,-0.00883492,0.0,0 STARLINK-5819,1 55780U 23028AR  23167.58334491 -.00883492  00000-0 -17145-1 0  9991,2 55780  69.9996 221.0872 0003359 271.6412  18.1612 15.50184568 17101,6794.324,92.892,418.471,413.907,0.0
55780.0,STARLINK-5819,PAYLOAD,2023-06-16 22:00:00,15.4950745,0.000339,69.9993,220.1778,267.5533,81.541,-0.016847,-0.00850585,0.0,0 STARLINK-5819,1 55780U 23028AR  23167.91667824 -.00850585  00000-0 -16847-1 0  9992,2 55780  69.9993 220.1778 0003390 267.5533  81.5410 15.49507450  1308,6796.303,92.933,420.472,415.864,0.0
55780.0,STARLINK-5819,PAYLOAD,2023-06-17 06:00:02,15.48917633,0.0003471,69.9992,219.2695,268.4505,139.1905,-0.019486,-0.00966619,0.0,0 STARLINK-5819,1 55780U 23028AR  23168.25002315 -.00966619  00000-0 -19486-1 0  9996,2 55780  69.9992 219.2695 0003471 268.4505 139.1905 15.48917633 17216,6798.028,92.968,422.253,417.534,0.0
55780.0,STARLINK-5819,PAYLOAD,2023-06-17 14:00:01,15.48226025,0.0003372,69.9988,218.3617,275.0956,190.2084,-0.018286,-0.00879694,0.0,0 STARLINK-5819,1 55780U 23028AR  23168.58334491 -.00879694  00000-0 -18286-1 0  9998,2 55780  69.9988 218.3617 0003372 275.0956 190.2084 15.48226025  1306,6800.052,93.01,424.21,419.625,0.0
55780.0,STARLINK-5819,PAYLOAD,2023-06-17 22:00:01,15.47546763,0.0003344,69.9988,217.4549,268.9942,253.3195,-0.017851,-0.00842062,0.0,0 STARLINK-5819,1 55780U 23028AR  23168.91668981 -.00842062  00000-0 -17851-1 0  9995,2 55780  69.9988 217.4549 0003344 268.9942 253.3195 15.47546763 17310,6802.042,93.05,426.182,421.633,0.0
55780.0,STARLINK-5819,PAYLOAD,2023-06-18 14:00:01,15.46267069,0.0003557,69.9986,215.644,271.6129,2.216,-0.01956,-0.00890857,0.0,0 STARLINK-5819,1 55780U 23028AR  23169.58335648 -.00890857  00000-0 -19560-1 0  9994,2 55780  69.9986 215.6440 0003557 271.6129   2.2160 15.46267069 17414,6805.795,93.128,430.08,425.239,0.0
55780.0,STARLINK-5819,PAYLOAD,2023-06-18 22:00:00,15.45591775,0.000357,69.9984,214.7398,267.7624,60.599,-0.01919,-0.00845685,0.0,0 STARLINK-5819,1 55780U 23028AR  23169.91667824 -.00845685  00000-0 -19190-1 0  9993,2 55780  69.9984 214.7398 0003570 267.7624  60.5990 15.45591775  1307,6807.777,93.168,432.072,427.211,0.0
55780.0,STARLINK-5819,PAYLOAD,2023-06-19 04:00:00,15.45166615,0.0003522,69.9986,214.0623,266.1981,12.5687,-0.021859,-0.00953043,0.0,0 STARLINK-5819,1 55780U 23028AR  23170.16667824 -.00953043  00000-0 -21859-1 0  9995,2 55780  69.9986 214.0623 0003522 266.1981  12.5687 15.45166615 17509,6809.026,93.194,433.289,428.492,0.0
55780.0,STARLINK-5819,PAYLOAD,2023-06-19 12:07:58,15.46137972,0.0003958,69.9961,213.1466,271.1338,88.9392,-0.0057463,-0.00273165,0.0,0 STARLINK-5819,1 55780U 23028AR  23170.50554127 -.00273165  00000-0 -57463-2 0  9995,2 55780  69.9961 213.1466 0003958 271.1338  88.9392 15.46137972 17563,6806.173,93.135,430.732,425.345,0.0
